[
    {
        "Altitude(m)": 612513.9258800923,
        "Argument of Periapsis(deg)": 0.0,
        "Eccentricity": 0.0,
        "Inclination(deg)": 60.0,
        "Latitude(deg)": -28.13594472052554,
        "Longitude(deg)": -177.08693886334586,
        "Mean Anomaly(deg)": 212.7273,
        "RAAN(deg)": 85.00000000000001,
        "Satellite Name": "Test1 387",
        "Satellite Number": 387,
        "Semi-Major Axis(m)": 6980739.136638005,
        "Time(s)": 0
    },
    {
        "Altitude(m)": 612708.293984973,
        "Argument of Periapsis(deg)": 0.00010418945913296404,
        "Eccentricity": 0.0,
        "Inclination(deg)": 60.0,
        "Latitude(deg)": -28.6476845142707,
        "Longitude(deg)": -176.72970970835405,
        "Mean Anomaly(deg)": 213.34740614546186,
        "RAAN(deg)": 84.99957995086027,
        "Satellite Name": "Test1 387",
        "Satellite Number": 387,
        "Semi-Major Axis(m)": 6980739.136638005,
        "Time(s)": 10
    },
    {
        "Altitude(m)": 612903.4887709625,
        "Argument of Periapsis(deg)": 0.0002083789182659281,
        "Eccentricity": 0.0,
        "Inclination(deg)": 60.0,
        "Latitude(deg)": -29.158184164080428,
        "Longitude(deg)": -176.36861333444412,
        "Mean Anomaly(deg)": 213.96751229092362,
        "RAAN(deg)": 84.99915990172053,
        "Satellite Name": "Test1 387",
        "Satellite Number": 387,
        "Semi-Major Axis(m)": 6980739.136638005,
        "Time(s)": 20
    },
    {
        "Altitude(m)": 613099.4390279033,
        "Argument of Periapsis(deg)": 0.00031256837739889213,
        "Eccentricity": 0.0,
        "Inclination(deg)": 60.0,
        "Latitude(deg)": -29.66740660122068,
        "Longitude(deg)": -176.00353827093258,
        "Mean Anomaly(deg)": 214.58761843638547,
        "RAAN(deg)": 84.99873985258077,
        "Satellite Name": "Test1 387",
        "Satellite Number": 387,
        "Semi-Major Axis(m)": 6980739.136638005,
        "Time(s)": 30
    },
    {
        "Altitude(m)": 613296.0730637963,
        "Argument of Periapsis(deg)": 0.0004167578365318562,
        "Eccentricity": 0.0,
        "Inclination(deg)": 60.0,
        "Latitude(deg)": -30.175313766197515,
        "Longitude(deg)": -175.63437005969007,
        "Mean Anomaly(deg)": 215.20772458184732,
        "RAAN(deg)": 84.99831980344103,
        "Satellite Name": "Test1 387",
        "Satellite Number": 387,
        "Semi-Major Axis(m)": 6980739.136638005,
        "Time(s)": 40
    },
    {
        "Altitude(m)": 613493.3187364846,
        "Argument of Periapsis(deg)": 0.0005209472956648203,
        "Eccentricity": 0.0,
        "Inclination(deg)": 60.0,
        "Latitude(deg)": -30.681866570246818,
        "Longitude(deg)": -175.26099219745237,
        "Mean Anomaly(deg)": 215.82783072730916,
        "RAAN(deg)": 84.99789975430129,
        "Satellite Name": "Test1 387",
        "Satellite Number": 387,
        "Semi-Major Axis(m)": 6980739.136638005,
        "Time(s)": 50
    },
    {
        "Altitude(m)": 613691.1034855888,
        "Argument of Periapsis(deg)": 0.0006251367547977843,
        "Eccentricity": 0.0,
        "Inclination(deg)": 60.0,
        "Latitude(deg)": -31.187024855487124,
        "Longitude(deg)": -174.8832855651436,
        "Mean Anomaly(deg)": 216.447936872771,
        "RAAN(deg)": 84.99747970516155,
        "Satellite Name": "Test1 387",
        "Satellite Number": 387,
        "Semi-Major Axis(m)": 6980739.136638005,
        "Time(s)": 60
    },
    {
        "Altitude(m)": 613889.3543645436,
        "Argument of Periapsis(deg)": 0.0007293262139307483,
        "Eccentricity": 0.0,
        "Inclination(deg)": 60.0,
        "Latitude(deg)": -31.690747353692828,
        "Longitude(deg)": -174.50112785725054,
        "Mean Anomaly(deg)": 217.0680430182328,
        "RAAN(deg)": 84.9970596560218,
        "Satellite Name": "Test1 387",
        "Satellite Number": 387,
        "Semi-Major Axis(m)": 6980739.136638005,
        "Time(s)": 70
    },
    {
        "Altitude(m)": 614087.9980728666,
        "Argument of Periapsis(deg)": 0.0008335156730637124,
        "Eccentricity": 0.0,
        "Inclination(deg)": 60.0,
        "Latitude(deg)": -32.19299164364613,
        "Longitude(deg)": -174.11439452430773,
        "Mean Anomaly(deg)": 217.6881491636947,
        "RAAN(deg)": 84.99663960688207,
        "Satellite Name": "Test1 387",
        "Satellite Number": 387,
        "Semi-Major Axis(m)": 6980739.136638005,
        "Time(s)": 80
    },
    {
        "Altitude(m)": 614286.9609885392,
        "Argument of Periapsis(deg)": 0.0009377051321966765,
        "Eccentricity": 0.0,
        "Inclination(deg)": 60.0,
        "Latitude(deg)": -32.693714107035646,
        "Longitude(deg)": -173.7229582029587,
        "Mean Anomaly(deg)": 218.3082553091565,
        "RAAN(deg)": 84.99621955774232,
        "Satellite Name": "Test1 387",
        "Satellite Number": 387,
        "Semi-Major Axis(m)": 6980739.136638005,
        "Time(s)": 90
    },
    {
        "Altitude(m)": 614486.1692005267,
        "Argument of Periapsis(deg)": 0.0010418945913296407,
        "Eccentricity": 0.0,
        "Inclination(deg)": 60.0,
        "Latitude(deg)": -33.19286988286142,
        "Longitude(deg)": -173.32668814670063,
        "Mean Anomaly(deg)": 218.92836145461834,
        "RAAN(deg)": 84.99579950860257,
        "Satellite Name": "Test1 387",
        "Satellite Number": 387,
        "Semi-Major Axis(m)": 6980739.136638005,
        "Time(s)": 100
    },
    {
        "Altitude(m)": 614685.5485413995,
        "Argument of Periapsis(deg)": 0.0011460840504626045,
        "Eccentricity": 0.0,
        "Inclination(deg)": 60.0,
        "Latitude(deg)": -33.69041282030729,
        "Longitude(deg)": -172.92545117045242,
        "Mean Anomaly(deg)": 219.5484676000801,
        "RAAN(deg)": 84.99537945946282,
        "Satellite Name": "Test1 387",
        "Satellite Number": 387,
        "Semi-Major Axis(m)": 6980739.136638005,
        "Time(s)": 110
    },
    {
        "Altitude(m)": 614885.0246200674,
        "Argument of Periapsis(deg)": 0.0012502735095955685,
        "Eccentricity": 0.0,
        "Inclination(deg)": 60.0,
        "Latitude(deg)": -34.186295430053846,
        "Longitude(deg)": -172.51911108349148,
        "Mean Anomaly(deg)": 220.16857374554195,
        "RAAN(deg)": 84.99495941032309,
        "Satellite Name": "Test1 387",
        "Satellite Number": 387,
        "Semi-Major Axis(m)": 6980739.136638005,
        "Time(s)": 120
    },
    {
        "Altitude(m)": 615084.5228546063,
        "Argument of Periapsis(deg)": 0.0013544629687285324,
        "Eccentricity": 0.0,
        "Inclination(deg)": 60.0,
        "Latitude(deg)": -34.68046883399444,
        "Longitude(deg)": -172.10752812396305,
        "Mean Anomaly(deg)": 220.7886798910038,
        "RAAN(deg)": 84.99453936118334,
        "Satellite Name": "Test1 387",
        "Satellite Number": 387,
        "Semi-Major Axis(m)": 6980739.136638005,
        "Time(s)": 130
    },
    {
        "Altitude(m)": 615283.968505124,
        "Argument of Periapsis(deg)": 0.0014586524278614966,
        "Eccentricity": 0.0,
        "Inclination(deg)": 60.0,
        "Latitude(deg)": -35.17288271332456,
        "Longitude(deg)": -171.6905599081973,
        "Mean Anomaly(deg)": 221.40878603646564,
        "RAAN(deg)": 84.99411931204361,
        "Satellite Name": "Test1 387",
        "Satellite Number": 387,
        "Semi-Major Axis(m)": 6980739.136638005,
        "Time(s)": 140
    },
    {
        "Altitude(m)": 615483.2867067059,
        "Argument of Periapsis(deg)": 0.0015628418869944607,
        "Eccentricity": 0.0,
        "Inclination(deg)": 60.0,
        "Latitude(deg)": -35.66348525498307,
        "Longitude(deg)": -171.2680608694911,
        "Mean Anomaly(deg)": 222.0288921819275,
        "RAAN(deg)": 84.99369926290386,
        "Satellite Name": "Test1 387",
        "Satellite Number": 387,
        "Semi-Major Axis(m)": 6980739.136638005,
        "Time(s)": 150
    },
    {
        "Altitude(m)": 615682.4025023862,
        "Argument of Periapsis(deg)": 0.0016670313461274247,
        "Eccentricity": 0.0,
        "Inclination(deg)": 60.0,
        "Latitude(deg)": -36.152223096419156,
        "Longitude(deg)": -170.83988169967438,
        "Mean Anomaly(deg)": 222.6489983273893,
        "RAAN(deg)": 84.99327921376413,
        "Satellite Name": "Test1 387",
        "Satellite Number": 387,
        "Semi-Major Axis(m)": 6980739.136638005,
        "Time(s)": 160
    },
    {
        "Altitude(m)": 615881.2408761394,
        "Argument of Periapsis(deg)": 0.0017712208052603888,
        "Eccentricity": 0.0,
        "Inclination(deg)": 60.0,
        "Latitude(deg)": -36.63904126866501,
        "Longitude(deg)": -170.4058703068244,
        "Mean Anomaly(deg)": 223.26910447285115,
        "RAAN(deg)": 84.99285916462438,
        "Satellite Name": "Test1 387",
        "Satellite Number": 387,
        "Semi-Major Axis(m)": 6980739.136638005,
        "Time(s)": 170
    },
    {
        "Altitude(m)": 616079.7267858937,
        "Argument of Periapsis(deg)": 0.001875410264393353,
        "Eccentricity": 0.0,
        "Inclination(deg)": 60.0,
        "Latitude(deg)": -37.12388313770583,
        "Longitude(deg)": -169.9658712639235,
        "Mean Anomaly(deg)": 223.88921061831294,
        "RAAN(deg)": 84.99243911548464,
        "Satellite Name": "Test1 387",
        "Satellite Number": 387,
        "Semi-Major Axis(m)": 6980739.136638005,
        "Time(s)": 180
    },
    {
        "Altitude(m)": 616277.7851965046,
        "Argument of Periapsis(deg)": 0.0019795997235263173,
        "Eccentricity": 0.0,
        "Inclination(deg)": 60.0,
        "Latitude(deg)": -37.606690344137604,
        "Longitude(deg)": -169.5197252619273,
        "Mean Anomaly(deg)": 224.5093167637748,
        "RAAN(deg)": 84.9920190663449,
        "Satellite Name": "Test1 387",
        "Satellite Number": 387,
        "Semi-Major Axis(m)": 6980739.136638005,
        "Time(s)": 190
    }
]